ORBCOMM FM115           
1 41186U 15081H   25355.00754060  .00000398  00000+0  11123-3 0  9997
2 41186  46.9974 230.7741 0001058 225.9646 134.1155 14.62934932535122
ORBCOMM FM108           
1 41187U 15081J   25355.13833404  .00000619  00000+0  16822-3 0  9999
2 41187  47.0060 303.8312 0001771  83.6280 276.4807 14.58571867534089
ORBCOMM FM117           
1 41188U 15081K   25355.10402716  .00000607  00000+0  16552-3 0  9992
2 41188  47.0022 302.6879 0002073  95.4333 264.6789 14.58597362534120
ORBCOMM FM116           
1 41189U 15081L   25355.15287679  .00000619  00000+0  16807-3 0  9993
2 41189  47.0033  32.2281 0002562 293.7669  66.2948 14.58591028532948
